MEAN_MOTION;ECCENTRICITY;INCLINATION;RA_OF_ASC_NODE;ARG_OF_PERICENTER;MEAN_ANOMALY;BSTAR;MEAN_MOTION_DOT;MEAN_MOTION_DDOT;TYPE
14.34219599;0.000236;86.3945;116.0904;90.1077;270.0389;1.6129E-5;6.5E-7;0;Iridium
14.34219706;0.0002354;86.3944;115.711;89.9219;270.2246;1.9338E-5;7.4E-7;0;Iridium
14.34219712;0.0002353;86.3944;115.6819;89.8551;270.2914;1.9163E-5;7.3E-7;0;Iridium
14.34219836;0.0002357;86.3942;115.3025;89.9443;270.2023;2.2822E-5;8.4E-7;0;Iridium
14.34216592;0.0002332;86.3942;114.894;90.2512;269.8951;3.8947E-5;1.29E-6;0;Iridium
14.3421668;0.0002329;86.3941;114.4854;90.2367;269.9096;3.9573E-5;1.31E-6;0;Iridium
14.342167;0.0002328;86.394;114.4562;90.1821;269.9642;3.9158E-5;1.29E-6;0;Iridium
14.34216797;0.0002331;86.3939;114.0478;90.2996;269.8467;3.2695E-5;1.11E-6;0;Iridium
14.34216797;0.0002331;86.3939;114.0478;90.2996;269.8467;3.2695E-5;1.11E-6;0;Iridium
14.34216756;0.0002348;86.3937;113.6391;90.3254;269.8211;1.8038E-5;7.0E-7;0;Iridium
14.34216775;0.0002348;86.3937;113.6099;90.3344;269.812;1.8248E-5;7.1E-7;0;Iridium
14.34217045;0.000233;86.3936;113.2014;89.9876;270.1587;2.5864E-5;9.2E-7;0;Iridium
14.34217045;0.000233;86.3936;113.2014;89.9876;270.1587;2.5864E-5;9.2E-7;0;Iridium
14.34217059;0.0002325;86.3935;113.143;89.6634;270.4828;2.5019E-5;9.0E-7;0;Iridium
14.34217308;0.000231;86.3934;112.7052;89.2048;270.9413;2.7322E-5;9.6E-7;0;Iridium
14.34217398;0.0002294;86.3933;112.3549;88.5696;271.5763;2.3881E-5;8.7E-7;0;Iridium
14.34217423;0.0002298;86.3933;112.2382;88.5056;271.6403;2.3319E-5;8.5E-7;0;Iridium
14.34217503;0.0002289;86.3933;111.9755;88.3373;271.8085;2.2899E-5;8.4E-7;0;Iridium
14.34217512;0.0002287;86.3932;111.8003;88.2296;271.9162;1.9671E-5;7.5E-7;0;Iridium
14.34217488;0.0002281;86.3932;111.5376;88.1289;272.0168;1.2461E-5;5.5E-7;0;Iridium
14.34217488;0.0002281;86.3932;111.5376;88.1289;272.0168;1.2461E-5;5.5E-7;0;Iridium
14.34217528;0.0002281;86.3931;111.3917;88.0391;272.1066;1.461E-5;6.1E-7;0;Iridium
14.34217579;0.0002274;86.3931;111.1289;87.9989;272.1468;1.4576E-5;6.1E-7;0;Iridium
14.34217582;0.0002274;86.3931;111.0997;87.9693;272.1763;1.4153E-5;5.9E-7;0;Iridium
14.34217608;0.0002273;86.393;110.9538;87.9203;272.2253;1.4766E-5;6.1E-7;0;Iridium
14.34217672;0.0002268;86.393;110.6911;87.8072;272.3383;1.6122E-5;6.5E-7;0;Iridium
14.34217714;0.0002268;86.3929;110.5451;87.724;272.4216;1.8199E-5;7.1E-7;0;Iridium
14.34217814;0.000226;86.3929;110.2824;87.6774;272.4681;2.1352E-5;8.0E-7;0;Iridium
14.34217819;0.0002259;86.3929;110.2532;87.6483;272.4972;2.1157E-5;7.9E-7;0;Iridium
14.3421785;0.0002258;86.3928;110.1073;87.6517;272.4938;2.2012E-5;8.1E-7;0;Iridium
14.34217886;0.0002255;86.3928;109.9029;87.6929;272.4525;2.2271E-5;8.2E-7;0;Iridium
14.34215275;0.0002251;86.3928;109.8447;87.3098;272.8355;2.2097E-5;8.2E-7;0;Iridium
14.34215604;0.0002243;86.3927;109.4651;87.1163;273.029;3.8596E-5;1.28E-6;0;Iridium
14.34215535;0.0002242;86.3926;109.4359;87.1315;273.0137;2.3513E-5;8.6E-7;0;Iridium
14.3421558;0.0002237;86.3926;109.2899;87.3366;272.8086;2.2132E-5;8.2E-7;0;Iridium
14.34215647;0.0002231;86.3926;109.0272;87.3003;272.8448;1.995E-5;7.6E-7;0;Iridium
14.34215704;0.0002231;86.3925;108.852;87.189;272.9561;2.1616E-5;8.0E-7;0;Iridium
14.34215736;0.0002227;86.3925;108.6185;87.2501;272.8949;1.8643E-5;7.2E-7;0;Iridium
14.34215777;0.0002227;86.3925;108.4433;87.113;273.0321;1.8968E-5;7.3E-7;0;Iridium
14.34215842;0.0002222;86.3925;108.2098;87.1347;273.0103;1.8725E-5;7.2E-7;0;Iridium
14.34215911;0.000222;86.3925;108.0346;87.1288;273.0162;2.0012E-5;7.6E-7;0;Iridium
14.34215971;0.0002216;86.3925;107.7719;87.0861;273.0588;1.8238E-5;7.1E-7;0;Iridium
14.34216048;0.0002215;86.3925;107.5968;86.9906;273.1543;1.9817E-5;7.5E-7;0;Iridium
14.34216117;0.000221;86.3925;107.3632;86.9898;273.1551;1.9026E-5;7.3E-7;0;Iridium
14.34216124;0.000221;86.3925;107.334;86.9729;273.1719;1.8779E-5;7.2E-7;0;Iridium
14.34216175;0.0002209;86.3925;107.1881;86.9313;273.2136;1.9426E-5;7.4E-7;0;Iridium
14.34216228;0.00022;86.3925;106.9254;86.9405;273.2043;1.6823E-5;6.7E-7;0;Iridium
14.34216243;0.0002201;86.3925;106.7794;86.9104;273.2343;1.566E-5;6.4E-7;0;Iridium
14.34216253;0.0002201;86.3925;106.721;86.9192;273.2255;1.4369E-5;6.0E-7;0;Iridium
14.34216278;0.0002193;86.3925;106.3415;86.879;273.2656;1.0589E-5;4.9E-7;0;Iridium
14.34216267;0.0002193;86.3925;106.2831;86.9627;273.182;8.7529E-6;4.4E-7;0;Iridium
14.34216284;0.0002186;86.3925;106.1079;86.9084;273.2362;8.2554E-6;4.3E-7;0;Iridium
14.34216318;0.000218;86.3925;105.6993;86.7882;273.3563;6.7747E-6;3.9E-7;0;Iridium
14.34216435;0.0002171;86.3925;105.2905;86.8907;273.2538;1.1168E-5;5.1E-7;0;Iridium
14.34216479;0.0002171;86.3925;105.0862;86.9009;273.2435;1.2173E-5;5.4E-7;0;Iridium
14.34216593;0.0002163;86.3925;104.8527;86.9722;273.1721;1.6724E-5;6.7E-7;0;Iridium
14.34216641;0.0002162;86.3925;104.6775;86.887;273.2573;1.815E-5;7.1E-7;0;Iridium
14.34216704;0.0002158;86.3926;104.444;86.8459;273.2984;1.9786E-5;7.5E-7;0;Iridium
14.34216783;0.0002156;86.3926;104.2689;86.7587;273.3855;2.2343E-5;8.2E-7;0;Iridium
14.34216836;0.0002146;86.3926;104.0062;86.868;273.2761;2.1919E-5;8.1E-7;0;Iridium
14.34216836;0.0002146;86.3926;104.0062;86.868;273.2761;2.1919E-5;8.1E-7;0;Iridium
14.34216879;0.0002147;86.3926;103.8311;86.9941;273.15;2.2306E-5;8.2E-7;0;Iridium
14.34216916;0.0002145;86.3927;103.5976;87.4755;272.6686;2.1655E-5;8.0E-7;0;Iridium
14.34216958;0.0002147;86.3927;103.4224;87.5441;272.6;2.166E-5;8.0E-7;0;Iridium
14.3421699;0.0002139;86.3928;103.1889;87.5963;272.5477;2.0214E-5;7.6E-7;0;Iridium
14.34217044;0.0002138;86.3928;103.0138;87.4829;272.6612;2.0441E-5;7.7E-7;0;Iridium
14.34217117;0.0002131;86.3928;102.751;87.3985;272.7455;1.9435E-5;7.4E-7;0;Iridium
14.34217117;0.0002131;86.3928;102.751;87.3985;272.7455;1.9435E-5;7.4E-7;0;Iridium
14.34217162;0.0002133;86.3929;102.5759;87.6931;272.4509;1.8797E-5;7.2E-7;0;Iridium
14.34217293;0.000213;86.3929;102.1672;87.9581;272.1859;1.7938E-5;7.0E-7;0;Iridium
14.34217393;0.0002133;86.393;101.9337;88.3063;271.8377;1.8186E-5;7.1E-7;0;Iridium
14.34217493;0.000213;86.3931;101.5251;88.4391;271.7049;1.6056E-5;6.5E-7;0;Iridium
14.3421756;0.000213;86.3931;101.3208;88.3746;271.7694;1.572E-5;6.4E-7;0;Iridium
14.34217593;0.0002124;86.3932;101.0873;88.4166;271.7273;1.4205E-5;6.0E-7;0;Iridium
14.34217593;0.0002124;86.3932;101.0873;88.4166;271.7273;1.4205E-5;6.0E-7;0;Iridium
14.34217623;0.0002121;86.3932;100.9121;88.2664;271.8774;1.3416E-5;5.7E-7;0;Iridium
14.34217671;0.0002111;86.3933;100.6787;88.1229;272.0208;1.2827E-5;5.6E-7;0;Iridium
14.3421772;0.0002117;86.3933;100.5035;88.2687;271.8752;1.3281E-5;5.7E-7;0;Iridium
14.34217772;0.0002114;86.3934;100.27;88.2871;271.8567;1.3724E-5;5.8E-7;0;Iridium
14.34217834;0.0002117;86.3934;100.0658;88.3071;271.8367;1.4537E-5;6.0E-7;0;Iridium
14.34217908;0.0002112;86.3934;99.8322;88.1246;272.0192;1.6808E-5;6.7E-7;0;Iridium
14.34217908;0.0002112;86.3934;99.8322;88.1246;272.0192;1.6808E-5;6.7E-7;0;Iridium
14.34217981;0.0002112;86.3935;99.6571;88.1516;271.9921;1.8962E-5;7.3E-7;0;Iridium
14.34218056;0.0002107;86.3935;99.4236;88.2699;271.8738;2.0984E-5;7.9E-7;0;Iridium
14.34218133;0.0002112;86.3935;99.1609;88.3755;271.7683;2.3041E-5;8.4E-7;0;Iridium
14.34218171;0.0002105;86.3936;99.015;88.2914;271.8523;2.3407E-5;8.5E-7;0;Iridium
14.34218242;0.0002108;86.3936;98.8108;88.376;271.7678;2.4005E-5;8.7E-7;0;Iridium
14.34218315;0.0002105;86.3937;98.5773;88.2779;271.8658;2.5357E-5;9.1E-7;0;Iridium
14.34218315;0.0002105;86.3937;98.5773;88.2779;271.8658;2.5357E-5;9.1E-7;0;Iridium
14.34218367;0.0002106;86.3937;98.4023;88.3026;271.8411;2.5323E-5;9.1E-7;0;Iridium
14.34218431;0.0002103;86.3938;98.1688;88.3317;271.812;2.5494E-5;9.1E-7;0;Iridium
14.3421851;0.0002105;86.3938;97.9937;88.4342;271.7094;2.676E-5;9.5E-7;0;Iridium
14.34218632;0.0002105;86.3938;97.7602;88.6223;271.5213;2.8506E-5;1.0E-6;0;Iridium
14.34218714;0.0002108;86.3939;97.5559;88.6649;271.4788;2.8542E-5;1.0E-6;0;Iridium
14.34218798;0.0002105;86.3939;97.3516;88.7587;271.385;2.8993E-5;1.01E-6;0;Iridium
14.34218875;0.0002109;86.394;97.1474;88.7539;271.3898;2.8222E-5;9.9E-7;0;Iridium
14.34218946;0.0002108;86.394;96.9139;88.9149;271.2289;2.7165E-5;9.6E-7;0;Iridium
14.34218946;0.0002108;86.394;96.9139;88.9149;271.2289;2.7165E-5;9.6E-7;0;Iridium
14.34218994;0.0002112;86.3941;96.7388;88.9712;271.1726;2.5709E-5;9.2E-7;0;Iridium
14.34219063;0.000211;86.3942;96.5054;89.034;271.1098;2.4242E-5;8.8E-7;0;Iridium
14.34219105;0.0002115;86.3943;96.3012;89.1596;270.9842;2.2146E-5;8.2E-7;0;Iridium
14.34219142;0.000212;86.3943;96.0969;89.3991;270.7447;2.0645E-5;7.8E-7;0;Iridium
14.34219205;0.0002129;86.3944;95.8927;89.4857;270.6582;1.9722E-5;7.5E-7;0;Iridium
14.34219199;0.0002128;86.3945;95.6885;89.1879;270.9561;1.621E-5;6.5E-7;0;Iridium
14.34219252;0.0002133;86.3946;95.4842;89.2752;270.8688;1.5444E-5;6.3E-7;0;Iridium
14.34219303;0.0002132;86.3947;95.2507;89.3411;270.8029;1.4798E-5;6.1E-7;0;Iridium
14.34219303;0.0002132;86.3947;95.2507;89.3411;270.8029;1.4798E-5;6.1E-7;0;Iridium
14.34219303;0.0002132;86.3947;95.2507;89.3411;270.8029;1.4798E-5;6.1E-7;0;Iridium
14.34219331;0.0002136;86.3947;95.0465;89.155;270.9891;1.3384E-5;5.7E-7;0;Iridium
14.34219446;0.0002143;86.3948;94.8423;89.5941;270.55;1.662E-5;6.6E-7;0;Iridium
14.34219486;0.0002146;86.3949;94.6381;89.5901;270.554;1.582E-5;6.4E-7;0;Iridium
14.34219567;0.0002142;86.395;94.4339;89.4407;270.7034;1.8117E-5;7.1E-7;0;Iridium
14.34219615;0.0002146;86.395;94.2297;89.3966;270.7476;1.8049E-5;7.0E-7;0;Iridium
14.34219684;0.0002144;86.3951;93.9962;89.2135;270.9307;1.9696E-5;7.5E-7;0;Iridium
14.34219684;0.0002144;86.3951;93.9962;89.2135;270.9307;1.9696E-5;7.5E-7;0;Iridium
14.34219694;0.0002153;86.3951;93.792;89.2884;270.8559;1.8401E-5;7.1E-7;0;Iridium
14.34216068;0.0002226;86.3956;93.3541;88.6511;271.494;1.9726E-5;7.5E-7;0;Iridium
14.34215757;0.0002194;86.3957;93.1789;89.5551;270.5896;2.1049E-5;7.9E-7;0;Iridium
14.34216024;0.0002174;86.3956;92.7711;89.2221;270.9224;3.1169E-5;1.07E-6;0;Iridium
14.34216082;0.0002176;86.3957;92.5378;89.1308;271.0137;2.7333E-5;9.6E-7;0;Iridium
